[{"OBJECT_NAME":"STARLINK-6132","OBJECT_ID":"2023-090A","EPOCH":"2026-03-08T23:45:09.897696","MEAN_MOTION":15.02537202,"ECCENTRICITY":0.00012937,"INCLINATION":43.0046,"RA_OF_ASC_NODE":278.8411,"ARG_OF_PERICENTER":265.8826,"MEAN_ANOMALY":94.1869,"EPHEMERIS_TYPE":0,"CLASSIFICATION_TYPE":"U","NORAD_CAT_ID":57101,"ELEMENT_SET_NO":999,"REV_AT_EPOCH":15030,"BSTAR":2.3332381e-5,"MEAN_MOTION_DOT":1.12e-6,"MEAN_MOTION_DDOT":0},{"OBJECT_NAME":"FTV 3502","OBJECT_ID":"1962-039A","EPOCH":"2026-03-09T21:41:26.705184","MEAN_MOTION":14.91961609,"ECCENTRICITY":0.00806549,"INCLINATION":98.4622,"RA_OF_ASC_NODE":145.9901,"ARG_OF_PERICENTER":91.4356,"MEAN_ANOMALY":269.6102,"EPHEMERIS_TYPE":0,"CLASSIFICATION_TYPE":"U","NORAD_CAT_ID":369,"ELEMENT_SET_NO":999,"REV_AT_EPOCH":40080,"BSTAR":0.00025514942,"MEAN_MOTION_DOT":2.681e-5,"MEAN_MOTION_DDOT":0}]
